TIANYAN 01              
1 44881U 19093C   24097.54980711  .00001082  00000+0  13802-3 0  9991
2 44881  97.8309 175.7210 0014251 191.8306 168.2576 14.83442716232425
RS-44 & BREEZE-KM R/B   
1 44909U 19096E   24097.57569839  .00000030  00000+0  77380-4 0  9996
2 44909  82.5218 152.3608 0216821 218.3789 140.1718 12.79728327199815
BY70-2                  
1 45857U 20042B   24097.54117046  .00061214  00000+0  33760-2 0  9991
2 45857  97.9096 187.4099 0005242 127.6857 232.4849 15.13712454203659
SALSAT                  
1 46495U 20068K   24097.36136403  .00006386  00000+0  37733-3 0  9990
2 46495  97.8095  54.9517 0013775 191.2882 168.8040 15.11782042193453
RADFXSAT-2 (AO-109)     
1 47311U 21002C   24097.24628855  .00447931  86330-4  13384-2 0  9996
2 47311  60.6632 341.5249 0013140 104.9065 255.3510 15.91874081179993
UVSQ-SAT                
1 47438U 21006AB  24097.42277548  .00034238  00000+0  85804-3 0  9993
2 47438  97.3369 157.3389 0008403 117.5470 242.6630 15.39946052177665
LEDSAT                  
1 49069U 21073D   24097.45810267  .00013210  00000+0  58092-3 0  9999
2 49069  97.4437 169.2071 0021168 173.0558 187.0975 15.21804139145536
XW-3 (CAS-9)            
1 50466U 21131B   24097.53541804  .00000641  00000+0  21993-3 0  9998
2 50466  98.5278 182.9518 0003715 356.9543   3.1622 14.39466512119698
TEVEL-3                 
1 50988U 22002E   24097.56207218  .00068293  00000+0  12605-2 0  9992
2 50988  97.3879 170.8703 0004837 242.1404 117.9357 15.48858088123903
TEVEL-8                 
1 50989U 22002F   24097.46793291  .00066289  00000+0  12299-2 0  9995
2 50989  97.3895 170.8616 0004756 239.8565 120.2214 15.48717610123887
TEVEL-5                 
1 50998U 22002Q   24097.56303721  .00078768  00000+0  13160-2 0  9994
2 50998  97.3864 171.8647 0005507 235.3335 124.7399 15.51641331123972
TEVEL-6                 
1 50999U 22002R   24097.56544179  .00078274  00000+0  13119-2 0  9995
2 50999  97.3860 171.8460 0005460 235.4362 124.6375 15.51554511123977
TEVEL-1                 
1 51013U 22002AF  24097.45643001  .00065262  00000+0  12111-2 0  9999
2 51013  97.3872 170.6405 0004752 241.7841 118.2931 15.48715819123882
TEVEL-7                 
1 51062U 22002CG  24097.46024973  .00065133  00000+0  12043-2 0  9996
2 51062  97.3891 170.8268 0004863 241.2415 118.8348 15.48820962123885
TEVEL-4                 
1 51063U 22002CH  24097.55275512  .00069733  00000+0  12996-2 0  9991
2 51063  97.3891 170.8470 0004846 241.9821 118.0940 15.48574035123898
TEVEL-2                 
1 51069U 22002CP  24097.56106903  .00068225  00000+0  12577-2 0  9995
2 51069  97.3878 170.8366 0004833 241.6328 118.4436 15.48893950123904
GREENCUBE               
1 53106U 22080B   24092.39201857 -.00000003  00000+0  00000+0 0  9991
2 53106  70.1401 219.1945 0008103 122.4070 237.7374  6.42557363 40333
KUZBASS-300 (RS34S)     
1 53375U 22096F   24097.54811854  .00180783  00000+0  12633-2 0  9993
2 53375  97.3880  15.7578 0006107 115.3285 244.8612 15.73726938 93226
UTMN (RS23S)            
1 53376U 22096G   24096.41914568  .00216412  00000+0  12186-2 0  9997
2 53376  97.3857  15.3927 0005897 121.0314 239.1532 15.78582378 93105
MIET-AIS (RS28S)        
1 53377U 22096H   24097.59958733  .00121671  00000+0  11432-2 0  9995
2 53377  97.3928  14.9872 0004688 111.6775 248.4985 15.66749951 93173
KAI-1 (RS26S)           
1 53378U 22096J   24097.56394151  .00055581  00000+0  78518-3 0  9996
2 53378  97.3993  13.1618 0003185 115.4027 244.7558 15.56380791 93041
ISOI (RS19S)            
1 53381U 22096M   24097.58354841  .00126517  00000+0  10973-2 0  9992
2 53381  97.3949  15.7624 0005322 101.9049 258.2809 15.68710478 93221
CUBESX-HSE-2 (RS21S)    
1 53383U 22096P   24096.41195394  .00199879  00000+0  11736-2 0  9990
2 53383  97.3860  15.5820 0006645 105.9334 254.2665 15.77678439 93115
SIREN (RS30S)           
1 53384U 22096Q   24097.58674672  .00079161  00000+0  89048-3 0  9994
2 53384  97.3960  14.5796 0005140  90.3802 269.8045 15.62316506 93149
CAS-5A (FO-118)         
1 54684U 22167C   24097.61666857  .00021827  00000+0  86369-3 0  9996
2 54684  97.5951 241.0448 0010319  38.0357 322.1607 15.25423318 73373
STRATOSAT-TK 1 (RS52S)  
1 57167U 23091B   24097.57091029  .00011751  00000+0  73035-3 0  9991
2 57167  97.6205 150.9491 0015464   9.7030 350.4494 15.09710761 42748
UMKA 1 (RS40S)          
1 57172U 23091G   24097.55596509  .00005174  00000+0  35399-3 0  9991
2 57172  97.6210 150.3539 0017051  10.8149 349.3442 15.06432863 42702
CUBESX-HSE 3 (RS42S)    
1 57178U 23091N   24097.56588377  .00007000  00000+0  46572-3 0  9997
2 57178  97.6241 150.6302 0017383   4.7088 355.4300 15.07341549 42718
MONITOR-4 (RS57S)       
1 57182U 23091S   24097.60024219  .00005621  00000+0  37832-3 0  9993
2 57182  97.6236 150.5424 0017770   7.0021 353.1451 15.06994938 42711
MONITOR-2 (RS39S)       
1 57184U 23091U   24097.59480600  .00003346  00000+0  22903-3 0  9998
2 57184  97.6239 150.7213 0014118   2.1471 357.9814 15.06705947 42728
SVYATOBOR 1 (RS60S)     
1 57187U 23091X   24097.54831156  .00005631  00000+0  37098-3 0  9992
2 57187  97.6244 150.9407 0013494 359.2745   0.8461 15.07840955 42733
VIZARD-METEO (RS38S)    
1 57189U 23091Z   24097.49552876  .00007731  00000+0  49355-3 0  9999
2 57189  97.6234 151.1366 0012318 356.7561   3.3586 15.08889853 42741
NANOZOND 1 (RS49S)      
1 57190U 23091AA  24097.59947719  .00009295  00000+0  56447-3 0  9993
2 57190  97.6210 151.5177 0010686   3.5021 356.6281 15.10672890 42789
POLYTECH-UNIVERSE 3 (R*)
1 57191U 23091AB  24097.59542561  .00003697  00000+0  25279-3 0  9999
2 57191  97.6207 150.4469 0020098  17.2956 342.8951 15.06593822 42711
UTMN 2 (RS27S)          
1 57203U 23091AP  24097.59903563  .00006065  00000+0  39187-3 0  9991
2 57203  97.6234 151.1515 0012644 357.9943   2.1232 15.08535791 42758
ARCCUBE 1 (RS25S)       
1 57205U 23091AR  24097.55350851  .00011787  00000+0  70084-3 0  9993
2 57205  97.6185 151.5061 0010900   4.1257 356.0060 15.11372428 42780
KUZGTU 1 (RS47S)        
1 57217U 23091AV  24097.56893553  .00006822  00000+0  45513-3 0  9991
2 57217  97.6215 150.5355 0017344   6.0386 354.1047 15.07247390 42716
HADES-D (SO-121)        
1 58567U 23174CY  24097.18288453  .00031405  00000+0  13727-2 0  9993
2 58567  97.4605 173.0997 0014581 126.8640 233.3935 15.21932512 22807
CUTE-1 (CO-55)          
1 27844U 03031E   24096.95955643  .00000417  00000+0  20396-3 0  9993
2 27844  98.6800 104.9942 0009658   1.9467 358.1747 14.23149498 77512
CUBESAT XI-IV (CO-57)   
1 27848U 03031J   24096.93603024  .00000350  00000+0  17600-3 0  9998
2 27848  98.6829 105.2555 0009935  17.5855 342.5665 14.22607210 77261
CUBESAT XI-V            
1 28895U 05043F   24097.30614867  .00001941  00000+0  35321-3 0  9992
2 28895  98.1892 233.1028 0015356 221.0893 138.9155 14.67196717983916
CUTE-1.7+APD II (CO-65) 
1 32785U 08021C   24097.45932398  .00005091  00000+0  46282-3 0  9990
2 32785  97.7485  63.4738 0010553 193.8722 166.2210 14.95631933864756
AAUSAT-II               
1 32788U 08021F   24097.41123934  .00017213  00000+0  96080-3 0  9997
2 32788  97.5916  77.6623 0008782  73.8579 286.3618 15.13575591867458
SEEDS II (CO-66)        
1 32791U 08021J   24097.36522412  .00007245  00000+0  55720-3 0  9999
2 32791  97.6861  69.0659 0006593 153.5158 206.6404 15.01987282865731
SWISSCUBE               
1 35932U 09051B   24097.42491610  .00001069  00000+0  23946-3 0  9998
2 35932  98.4815 339.2848 0007289 170.1696 189.9646 14.58738313772093
BEESAT-1                
1 35933U 09051C   24097.62332395  .00000952  00000+0  21533-3 0  9995
2 35933  98.4742 340.4873 0005364 179.0977 181.0232 14.58516492772194
ITUPSAT1                
1 35935U 09051E   24097.38131386  .00000857  00000+0  19923-3 0  9991
2 35935  98.4841 340.0620 0007448 190.3346 169.7699 14.57496352771801
TISAT 1                 
1 36799U 10035E   24097.25020906  .00005950  00000+0  47275-3 0  9995
2 36799  98.0979 343.6430 0008289 106.6458 253.5675 15.00838787746263
M-CUBED & EXP-1 PRIME   
1 37855U 11061F   24097.63456513  .00113647  00000+0  14182-2 0  9991
2 37855 101.6867 237.6138 0066486 205.6736 154.1198 15.56786485681827
AEROCUBE 4.5A           
1 38767U 12048K   24097.39245827  .00007906  00000+0  46825-3 0  9997
2 38767  64.6620 184.5472 0105298  43.9431 317.0000 15.07463921249630
AEROCUBE 4.5B           
1 38768U 12048L   24097.45189667  .00020915  00000+0  88147-3 0  9992
2 38768  64.6553 114.6800 0089984  32.1612 328.4957 15.19692242250507
STRAND-1                
1 39090U 13009E   24097.09197334  .00000407  00000+0  15464-3 0  9995
2 39090  98.3834 287.3622 0010034 106.3229 253.9062 14.35962436581890
BRITE-AUSTRIA           
1 39091U 13009F   24097.47348559  .00000257  00000+0  10350-3 0  9997
2 39091  98.3872 286.9982 0011480 111.7460 248.4949 14.35731802581973
NEE-01 PEGASO           
1 39151U 13018B   24097.54068940  .00003082  00000+0  36704-3 0  9995
2 39151  98.0260 214.0290 0014128 272.6845  87.2752 14.85024273591332
ESTCUBE 1               
1 39161U 13021C   24097.42212537  .00001858  00000+0  27763-3 0  9994
2 39161  97.8341 166.0814 0010452 102.3344 257.9037 14.75876299586504
POPACS 1                
1 39268U 13055D   24096.79933779  .00025586  00000+0  47909-3 0  9994
2 39268  80.9835 233.9163 0429804 324.4790  32.8479 14.86405139549761
POPACS 2                
1 39269U 13055E   24097.58273105  .00018487  00000+0  43673-3 0  9999
2 39269  81.0031 316.9762 0562992 180.9122 179.1112 14.53837133545187
POPACS 3                
1 39270U 13055F   24097.15186173  .00011938  00000+0  33422-3 0  9997
2 39270  81.0144   5.8073 0634427 318.0792  37.3420 14.35207889522623
